ONEWEB-0336             
1 49202U 21083S   26189.89309321  .00000144  00000+0  35811-3 0  9991
2 49202  87.8967 315.9078 0001857  90.0583 270.0759 13.13468166233763
ONEWEB-0337             
1 49203U 21083T   26191.27431353 -.00005271  00000+0 -14473-1 0  9995
2 49203  87.8984 315.6354 0002276  94.3008 265.8381 13.13494637233947
ONEWEB-0338             
1 49204U 21083U   26189.78329465  .00000050  00000+0  90834-4 0  9995
2 49204  87.9170 270.1443 0002018 106.3789 253.7566 13.20771177239665
ONEWEB-0339             
1 49205U 21083V   26191.35909162 -.00000092  00000+0 -28564-3 0  9998
2 49205  87.8980 315.6135 0002099 109.2980 250.8376 13.13468744233937
ONEWEB-0340             
1 49206U 21083W   26190.66884445  .00000001  00000+0 -28990-4 0  9991
2 49206  87.9188 330.9853 0001896  94.7619 265.3730 13.18686482232937
ONEWEB-0341             
1 49207U 21083X   26191.35847205  .00000055  00000+0  10573-3 0  9997
2 49207  87.9181 330.8499 0002322  93.7186 266.4212 13.18687458233043
ONEWEB-0342             
1 49208U 21083Y   26191.22942216  .00000026  00000+0  31582-4 0  9994
2 49208  87.9189 269.8453 0002101 103.1891 256.9476 13.20772302239821
ONEWEB-0343             
1 49209U 21083Z   26191.36690721  .00000016  00000+0  79495-5 0  9996
2 49209  87.9184 330.8467 0002128 107.7860 252.3504 13.18687063233097
ONEWEB-0344             
1 49210U 21083AA  26190.28752708 -.00000104  00000+0 -31990-3 0  9998
2 49210  87.8966 315.8406 0002219  93.1343 267.0040 13.13468602233793
ONEWEB-0345             
1 49211U 21083AB  26191.34555354  .00000266  00000+0  69274-3 0  9998
2 49211  87.8983 315.6136 0002238  98.3885 261.7498 13.13469217233948
ONEWEB-0346             
1 49212U 21083AC  26191.36353349  .00000067  00000+0  13845-3 0  9993
2 49212  87.9181 330.8467 0001674  77.1508 282.9811 13.18687190233037
ONEWEB-0348             
1 49213U 21083AD  26189.62843232  .00000123  00000+0  27103-3 0  9990
2 49213  87.9197 270.1699 0002272  84.7172 275.4221 13.20772749239647
ONEWEB-0350             
1 49214U 21083AE  26191.28812046  .00000373  00000+0  98621-3 0  9995
2 49214  87.8924 315.6293 0002213 120.1008 240.0340 13.13448837233967
ONEWEB-0351             
1 49215U 21083AF  26190.22760156 -.00000017  00000+0 -74932-4 0  9990
2 49215  87.9188 270.0487 0002632 112.1446 247.9967 13.20770157239689
ONEWEB-0352             
1 49216U 21083AG  26190.64979603  .00000445  00000+0  11830-2 0  9995
2 49216  87.8996 315.7587 0002208 100.5318 259.6060 13.13471182233970
ONEWEB-0355             
1 49218U 21083AJ  26190.29849357  .00000351  00000+0  92727-3 0  9991
2 49218  87.8970 315.8320 0002043 101.5704 258.5654 13.13300713233807
ONEWEB-0357             
1 49219U 21083AK  26190.17554199 -.00000092  00000+0 -25839-3 0  9990
2 49219  87.9189 270.0517 0002171 102.6489 257.4888 13.20770322239713
ONEWEB-0332             
1 49279U 21090A   26189.75996857 -.00000226  00000+0 -64383-3 0  9993
2 49279  87.8968 285.4110 0001947 106.4800 253.6544 13.14502736230411
ONEWEB-0347             
1 49280U 21090B   26191.15028341  .00000001  00000+0 -30353-4 0  9997
2 49280  87.9183 269.8650 0001953 105.1352 254.9997 13.20769542234072
ONEWEB-0349             
1 49281U 21090C   26191.18226446 -.00000121  00000+0 -32850-3 0  9994
2 49281  87.9190 269.8597 0002085  98.8220 261.3149 13.20772273232861
ONEWEB-0353             
1 49282U 21090D   26189.82815762 -.00000242  00000+0 -68671-3 0  9992
2 49282  87.8973 285.3932 0001893 106.9835 253.1502 13.14502022230423
ONEWEB-0356             
1 49283U 21090E   26191.18059174  .00000058  00000+0  11005-3 0  9994
2 49283  87.9189 269.8533 0001356  86.9392 273.1897 13.20769932232868
ONEWEB-0359             
1 49285U 21090G   26190.22268031 -.00000018  00000+0 -75703-4 0  9998
2 49285  87.9188 270.0439 0002168  92.1989 267.9393 13.20769954233442
ONEWEB-0360             
1 49286U 21090H   26189.75806195 -.00000046  00000+0 -14631-3 0  9997
2 49286  87.9190 270.1426 0002178  99.9887 260.1492 13.20770742232694
ONEWEB-0361             
1 49287U 21090J   26191.17891161  .00000047  00000+0  84426-4 0  9993
2 49287  87.9189 269.8581 0002055  94.9176 265.2192 13.20772362233335
ONEWEB-0362             
1 49288U 21090K   26190.23991970  .00000046  00000+0  82209-4 0  9995
2 49288  87.9189 300.5845 0002320 107.0306 253.1082 13.19725966229827
ONEWEB-0363             
1 49289U 21090L   26190.20922993 -.00000008  00000+0 -52187-4 0  9994
2 49289  87.9191 270.0512 0001767  94.3466 265.7869 13.20772061233212
ONEWEB-0364             
1 49290U 21090M   26191.15701731  .00000048  00000+0  87326-4 0  9991
2 49290  87.9189 269.8699 0002114  99.3429 260.7944 13.20770141234479
