OBJECT_NAME,OBJECT_ID,EPOCH,MEAN_MOTION,ECCENTRICITY,INCLINATION,RA_OF_ASC_NODE,ARG_OF_PERICENTER,MEAN_ANOMALY,EPHEMERIS_TYPE,CLASSIFICATION_TYPE,NORAD_CAT_ID,ELEMENT_SET_NO,REV_AT_EPOCH,BSTAR,MEAN_MOTION_DOT,MEAN_MOTION_DDOT
ONEWEB-0336,2021-083S,2026-07-08T21:26:03.253344,13.13468166,.00018571,87.8967,315.9078,90.0583,270.0759,0,U,49202,999,23376,.35811243E-3,.144E-5,0
ONEWEB-0337,2021-083T,2026-07-10T06:35:00.688992,13.13494637,.0002276,87.8984,315.6354,94.3008,265.8381,0,U,49203,999,23394,-.14472972E-1,-.5271E-4,0
ONEWEB-0338,2021-083U,2026-07-08T18:47:56.657760,13.20771177,.00020181,87.9170,270.1443,106.3789,253.7566,0,U,49204,999,23966,.90833829E-4,.5E-6,0
ONEWEB-0339,2021-083V,2026-07-10T08:37:05.515968,13.13468744,.00020993,87.8980,315.6135,109.2980,250.8376,0,U,49205,999,23393,-.28563937E-3,-.92E-6,0
ONEWEB-0340,2021-083W,2026-07-09T16:03:08.160480,13.18686482,.00018967,87.9188,330.9853,94.7619,265.3730,0,U,49206,999,23293,-.28990366E-4,.1E-7,0
ONEWEB-0341,2021-083X,2026-07-10T08:36:11.985120,13.18687458,.00023221,87.9181,330.8499,93.7186,266.4212,0,U,49207,999,23304,.10572948E-3,.55E-6,0
ONEWEB-0342,2021-083Y,2026-07-10T05:30:22.074624,13.20772302,.00021017,87.9189,269.8453,103.1891,256.9476,0,U,49208,999,23982,.31582238E-4,.26E-6,0
ONEWEB-0343,2021-083Z,2026-07-10T08:48:20.782944,13.18687063,.00021284,87.9184,330.8467,107.7860,252.3504,0,U,49209,999,23309,.7949508E-5,.16E-6,0
ONEWEB-0344,2021-083AA,2026-07-09T06:54:02.339712,13.13468602,.00022192,87.8966,315.8406,93.1343,267.0040,0,U,49210,999,23379,-.31990091E-3,-.104E-5,0
ONEWEB-0345,2021-083AB,2026-07-10T08:17:35.825856,13.13469217,.00022388,87.8983,315.6136,98.3885,261.7498,0,U,49211,999,23394,.69273651E-3,.266E-5,0
ONEWEB-0346,2021-083AC,2026-07-10T08:43:29.293536,13.18687190,.00016744,87.9181,330.8467,77.1508,282.9811,0,U,49212,999,23303,.13844774E-3,.67E-6,0
ONEWEB-0348,2021-083AD,2026-07-08T15:04:56.552448,13.20772749,.00022727,87.9197,270.1699,84.7172,275.4221,0,U,49213,999,23964,.27103357E-3,.123E-5,0
ONEWEB-0350,2021-083AE,2026-07-10T06:54:53.607744,13.13448837,.00022131,87.8924,315.6293,120.1008,240.0340,0,U,49214,999,23396,.98620892E-3,.373E-5,0
ONEWEB-0351,2021-083AF,2026-07-09T05:27:44.774784,13.20770157,.00026322,87.9188,270.0487,112.1446,247.9967,0,U,49215,999,23968,-.74932029E-4,-.17E-6,0
ONEWEB-0352,2021-083AG,2026-07-09T15:35:42.376992,13.13471182,.00022082,87.8996,315.7587,100.5318,259.6060,0,U,49216,999,23397,.11829846E-2,.445E-5,0
ONEWEB-0355,2021-083AJ,2026-07-09T07:09:49.844448,13.13300713,.00020436,87.8970,315.8320,101.5704,258.5654,0,U,49218,999,23380,.92726532E-3,.351E-5,0
ONEWEB-0357,2021-083AK,2026-07-09T04:12:46.827936,13.20770322,.00021714,87.9189,270.0517,102.6489,257.4888,0,U,49219,999,23971,-.25838733E-3,-.92E-6,0
ONEWEB-0332,2021-090A,2026-07-08T18:14:21.284448,13.14502736,.00019473,87.8968,285.4110,106.4800,253.6544,0,U,49279,999,23041,-.64383177E-3,-.226E-5,0
ONEWEB-0347,2021-090B,2026-07-10T03:36:24.486624,13.20769542,.00019539,87.9183,269.8650,105.1352,254.9997,0,U,49280,999,23407,-.30353237E-4,.1E-7,0
ONEWEB-0349,2021-090C,2026-07-10T04:22:27.649344,13.20772273,.00020855,87.9190,269.8597,98.8220,261.3149,0,U,49281,999,23286,-.32850048E-3,-.121E-5,0
ONEWEB-0353,2021-090D,2026-07-08T19:52:32.818368,13.14502022,.00018937,87.8973,285.3932,106.9835,253.1502,0,U,49282,999,23042,-.68671175E-3,-.242E-5,0
ONEWEB-0356,2021-090E,2026-07-10T04:20:03.126336,13.20769932,.00013569,87.9189,269.8533,86.9392,273.1897,0,U,49283,999,23286,.11005031E-3,.58E-6,0
ONEWEB-0359,2021-090G,2026-07-09T05:20:39.578784,13.20769954,.00021683,87.9188,270.0439,92.1989,267.9393,0,U,49285,999,23344,-.75702872E-4,-.18E-6,0
ONEWEB-0360,2021-090H,2026-07-08T18:11:36.552480,13.20770742,.00021785,87.9190,270.1426,99.9887,260.1492,0,U,49286,999,23269,-.14630911E-3,-.46E-6,0
ONEWEB-0361,2021-090J,2026-07-10T04:17:37.963104,13.20772362,.00020553,87.9189,269.8581,94.9176,265.2192,0,U,49287,999,23333,.84425829E-4,.47E-6,0
ONEWEB-0362,2021-090K,2026-07-09T05:45:29.062080,13.19725966,.00023205,87.9189,300.5845,107.0306,253.1082,0,U,49288,999,22982,.82208699E-4,.46E-6,0
ONEWEB-0363,2021-090L,2026-07-09T05:01:17.465952,13.20772061,.00017674,87.9191,270.0512,94.3466,265.7869,0,U,49289,999,23321,-.52187496E-4,-.8E-7,0
ONEWEB-0364,2021-090M,2026-07-10T03:46:06.295584,13.20770141,.00021145,87.9189,269.8699,99.3429,260.7944,0,U,49290,999,23447,.87326184E-4,.48E-6,0
